[{"OBJECT_NAME":"METEOSAT-11 (MSG-4)","OBJECT_ID":"2015-034A","EPOCH":"2026-06-26T16:01:13.359936","MEAN_MOTION":1.00266035,"ECCENTRICITY":0.0002249,"INCLINATION":3.2243,"RA_OF_ASC_NODE":71.0507,"ARG_OF_PERICENTER":347.7124,"MEAN_ANOMALY":105.7615,"EPHEMERIS_TYPE":0,"CLASSIFICATION_TYPE":"U","NORAD_CAT_ID":40732,"ELEMENT_SET_NO":999,"REV_AT_EPOCH":731,"BSTAR":0,"MEAN_MOTION_DOT":7.0e-7,"MEAN_MOTION_DDOT":0},{"OBJECT_NAME":"ELEKTRO-L 2","OBJECT_ID":"2015-074A","EPOCH":"2026-06-25T22:47:48.794784","MEAN_MOTION":1.00271163,"ECCENTRICITY":7.276e-5,"INCLINATION":6.717,"RA_OF_ASC_NODE":70.4166,"ARG_OF_PERICENTER":286.6211,"MEAN_ANOMALY":244.4527,"EPHEMERIS_TYPE":0,"CLASSIFICATION_TYPE":"U","NORAD_CAT_ID":41105,"ELEMENT_SET_NO":999,"REV_AT_EPOCH":3859,"BSTAR":0,"MEAN_MOTION_DOT":-1.13e-6,"MEAN_MOTION_DDOT":0},{"OBJECT_NAME":"SENTINEL-3A","OBJECT_ID":"2016-011A","EPOCH":"2026-06-26T18:06:05.567040","MEAN_MOTION":14.26735047,"ECCENTRICITY":0.0001437,"INCLINATION":98.6246,"RA_OF_ASC_NODE":245.0004,"ARG_OF_PERICENTER":96.8596,"MEAN_ANOMALY":263.2748,"EPHEMERIS_TYPE":0,"CLASSIFICATION_TYPE":"U","NORAD_CAT_ID":41335,"ELEMENT_SET_NO":999,"REV_AT_EPOCH":53942,"BSTAR":5.3149e-5,"MEAN_MOTION_DOT":8.5e-7,"MEAN_MOTION_DDOT":0},{"OBJECT_NAME":"INSAT-3DR","OBJECT_ID":"2016-054A","EPOCH":"2026-06-26T16:19:32.181312","MEAN_MOTION":1.00272412,"ECCENTRICITY":0.0010056,"INCLINATION":0.1299,"RA_OF_ASC_NODE":86.1996,"ARG_OF_PERICENTER":186.8884,"MEAN_ANOMALY":320.568,"EPHEMERIS_TYPE":0,"CLASSIFICATION_TYPE":"U","NORAD_CAT_ID":41752,"ELEMENT_SET_NO":999,"REV_AT_EPOCH":3591,"BSTAR":0,"MEAN_MOTION_DOT":-6.6e-7,"MEAN_MOTION_DDOT":0},{"OBJECT_NAME":"HIMAWARI-9","OBJECT_ID":"2016-064A","EPOCH":"2026-06-26T16:38:39.157728","MEAN_MOTION":1.00271107,"ECCENTRICITY":0.0001149,"INCLINATION":0.0176,"RA_OF_ASC_NODE":42.6421,"ARG_OF_PERICENTER":69.8877,"MEAN_ANOMALY":192.7078,"EPHEMERIS_TYPE":0,"CLASSIFICATION_TYPE":"U","NORAD_CAT_ID":41836,"ELEMENT_SET_NO":999,"REV_AT_EPOCH":3530,"BSTAR":0,"MEAN_MOTION_DOT":-2.64e-6,"MEAN_MOTION_DDOT":0},{"OBJECT_NAME":"GOES 16","OBJECT_ID":"2016-071A","EPOCH":"2026-06-26T13:45:56.860128","MEAN_MOTION":1.00272069,"ECCENTRICITY":5.63e-5,"INCLINATION":0.3649,"RA_OF_ASC_NODE":85.5362,"ARG_OF_PERICENTER":6.0774,"MEAN_ANOMALY":284.8738,"EPHEMERIS_TYPE":0,"CLASSIFICATION_TYPE":"U","NORAD_CAT_ID":41866,"ELEMENT_SET_NO":999,"REV_AT_EPOCH":3519,"BSTAR":0,"MEAN_MOTION_DOT":-8.0e-7,"MEAN_MOTION_DDOT":0},{"OBJECT_NAME":"FENGYUN 4A","OBJECT_ID":"2016-077A","EPOCH":"2026-06-26T13:08:30.580224","MEAN_MOTION":1.00264621,"ECCENTRICITY":0.0008229,"INCLINATION":2.3469,"RA_OF_ASC_NODE":80.1884,"ARG_OF_PERICENTER":152.1316,"MEAN_ANOMALY":3.0696,"EPHEMERIS_TYPE":0,"CLASSIFICATION_TYPE":"U","NORAD_CAT_ID":41882,"ELEMENT_SET_NO":999,"REV_AT_EPOCH":3502,"BSTAR":0,"MEAN_MOTION_DOT":-3.48e-6,"MEAN_MOTION_DDOT":0},{"OBJECT_NAME":"CYGFM05","OBJECT_ID":"2016-078A","EPOCH":"2026-06-26T11:27:19.109664","MEAN_MOTION":15.57045201,"ECCENTRICITY":0.0008074,"INCLINATION":34.9552,"RA_OF_ASC_NODE":199.0543,"ARG_OF_PERICENTER":235.8683,"MEAN_ANOMALY":124.1276,"EPHEMERIS_TYPE":0,"CLASSIFICATION_TYPE":"U","NORAD_CAT_ID":41884,"ELEMENT_SET_NO":999,"REV_AT_EPOCH":53020,"BSTAR":0.00027679,"MEAN_MOTION_DOT":0.00020719,"MEAN_MOTION_DDOT":0},{"OBJECT_NAME":"CYGFM04","OBJECT_ID":"2016-078B","EPOCH":"2026-06-26T16:11:08.981664","MEAN_MOTION":15.62010492,"ECCENTRICITY":0.0007282,"INCLINATION":34.9304,"RA_OF_ASC_NODE":164.9558,"ARG_OF_PERICENTER":273.9275,"MEAN_ANOMALY":86.0618,"EPHEMERIS_TYPE":0,"CLASSIFICATION_TYPE":"U","NORAD_CAT_ID":41885,"ELEMENT_SET_NO":999,"REV_AT_EPOCH":53048,"BSTAR":0.00031197,"MEAN_MOTION_DOT":0.0002827,"MEAN_MOTION_DDOT":0},{"OBJECT_NAME":"CYGFM02","OBJECT_ID":"2016-078C","EPOCH":"2026-06-26T15:45:38.446272","MEAN_MOTION":15.65087365,"ECCENTRICITY":0.0008267,"INCLINATION":34.9385,"RA_OF_ASC_NODE":159.3291,"ARG_OF_PERICENTER":275.9573,"MEAN_ANOMALY":84.0211,"EPHEMERIS_TYPE":0,"CLASSIFICATION_TYPE":"U","NORAD_CAT_ID":41886,"ELEMENT_SET_NO":999,"REV_AT_EPOCH":53065,"BSTAR":0.00033361,"MEAN_MOTION_DOT":0.00034187,"MEAN_MOTION_DDOT":0},{"OBJECT_NAME":"CYGFM01","OBJECT_ID":"2016-078D","EPOCH":"2026-06-26T09:32:53.515104","MEAN_MOTION":15.57732603,"ECCENTRICITY":0.0007851,"INCLINATION":34.9382,"RA_OF_ASC_NODE":200.5628,"ARG_OF_PERICENTER":229.8106,"MEAN_ANOMALY":130.1932,"EPHEMERIS_TYPE":0,"CLASSIFICATION_TYPE":"U","NORAD_CAT_ID":41887,"ELEMENT_SET_NO":999,"REV_AT_EPOCH":53014,"BSTAR":0.00030491,"MEAN_MOTION_DOT":0.00023434,"MEAN_MOTION_DDOT":0},{"OBJECT_NAME":"CYGFM08","OBJECT_ID":"2016-078E","EPOCH":"2026-06-26T09:43:43.968000","MEAN_MOTION":15.60462405,"ECCENTRICITY":0.0009155,"INCLINATION":34.9412,"RA_OF_ASC_NODE":179.8462,"ARG_OF_PERICENTER":258.1098,"MEAN_ANOMALY":101.8601,"EPHEMERIS_TYPE":0,"CLASSIFICATION_TYPE":"U","NORAD_CAT_ID":41888,"ELEMENT_SET_NO":999,"REV_AT_EPOCH":53041,"BSTAR":0.00032942,"MEAN_MOTION_DOT":0.00028134,"MEAN_MOTION_DDOT":0},{"OBJECT_NAME":"CYGFM07","OBJECT_ID":"2016-078G","EPOCH":"2026-06-26T16:24:40.015872","MEAN_MOTION":15.60577907,"ECCENTRICITY":0.0007692,"INCLINATION":34.9428,"RA_OF_ASC_NODE":166.3245,"ARG_OF_PERICENTER":273.4338,"MEAN_ANOMALY":86.5507,"EPHEMERIS_TYPE":0,"CLASSIFICATION_TYPE":"U","NORAD_CAT_ID":41890,"ELEMENT_SET_NO":999,"REV_AT_EPOCH":53048,"BSTAR":0.00031807,"MEAN_MOTION_DOT":0.00027265,"MEAN_MOTION_DDOT":0},{"OBJECT_NAME":"CYGFM03","OBJECT_ID":"2016-078H","EPOCH":"2026-06-26T15:42:58.829184","MEAN_MOTION":15.60568585,"ECCENTRICITY":0.0007313,"INCLINATION":34.9381,"RA_OF_ASC_NODE":168.4525,"ARG_OF_PERICENTER":262.8179,"MEAN_ANOMALY":97.1714,"EPHEMERIS_TYPE":0,"CLASSIFICATION_TYPE":"U","NORAD_CAT_ID":41891,"ELEMENT_SET_NO":999,"REV_AT_EPOCH":53045,"BSTAR":0.00031294,"MEAN_MOTION_DOT":0.00026809,"MEAN_MOTION_DDOT":0},{"OBJECT_NAME":"FENGYUN 3D","OBJECT_ID":"2017-072A","EPOCH":"2026-06-26T17:33:58.351968","MEAN_MOTION":14.19740326,"ECCENTRICITY":0.0002339,"INCLINATION":99.0125,"RA_OF_ASC_NODE":152.3264,"ARG_OF_PERICENTER":47.798,"MEAN_ANOMALY":312.3394,"EPHEMERIS_TYPE":0,"CLASSIFICATION_TYPE":"U","NORAD_CAT_ID":43010,"ELEMENT_SET_NO":999,"REV_AT_EPOCH":44634,"BSTAR":-7.0407e-5,"MEAN_MOTION_DOT":-1.95e-6,"MEAN_MOTION_DDOT":0},{"OBJECT_NAME":"NOAA 20 (JPSS-1)","OBJECT_ID":"2017-073A","EPOCH":"2026-06-26T17:28:58.011744","MEAN_MOTION":14.19513365,"ECCENTRICITY":6.29e-5,"INCLINATION":98.7772,"RA_OF_ASC_NODE":117.1062,"ARG_OF_PERICENTER":133.0625,"MEAN_ANOMALY":227.0604,"EPHEMERIS_TYPE":0,"CLASSIFICATION_TYPE":"U","NORAD_CAT_ID":43013,"ELEMENT_SET_NO":999,"REV_AT_EPOCH":44582,"BSTAR":4.0828e-5,"MEAN_MOTION_DOT":4.2e-7,"MEAN_MOTION_DDOT":0},{"OBJECT_NAME":"GOES 17","OBJECT_ID":"2018-022A","EPOCH":"2026-06-26T15:32:59.809344","MEAN_MOTION":1.00272766,"ECCENTRICITY":6.91e-5,"INCLINATION":0.9607,"RA_OF_ASC_NODE":85.5548,"ARG_OF_PERICENTER":24.2666,"MEAN_ANOMALY":308.6865,"EPHEMERIS_TYPE":0,"CLASSIFICATION_TYPE":"U","NORAD_CAT_ID":43226,"ELEMENT_SET_NO":999,"REV_AT_EPOCH":3051,"BSTAR":0,"MEAN_MOTION_DOT":-1.72e-6,"MEAN_MOTION_DDOT":0}]
